state,town,business_type,business_name,open,website_or_social_from_csv,notes,phone_from_csv
CT,Bridgeport,Restaurant,Betty's African Kitchen,Yes,https://www.doordash.com/store/betty-s-kitchen-bridgeport-629655/en-US,,
CT,Bridgeport,Restaurant,Miss Thelma's Soulfood,,https://www.facebook.com/missthelmas/,,
CT,Bridgeport,Restaurant,Shandal's Vegetarian Restaurant,,https://www.facebook.com/Shandals-Vegetarian-Cafe-138932232940462/,,
CT,Bridgeport,Restaurant,Surf vs. Turf,,https://www.ordersurfvsturfct.com/,,
CT,Bridgeport,Restaurant,Ten20,,https://www.ten20-ct.com/,,
CT,Bridgeport,Restaurant,Trap Chicken,,https://www.facebook.com/trapchicken/,,
CT,Bridgeport,Restaurant,Jr's Meatless Cuisine and Juices,,https://www.facebook.com/pages/category/Vegetarian-Vegan-Restaurant/Jrs-Meatless-Cuisine-and-Juices-105971304226853/,,
CT,East Hartford,Restaurant,Perfect Poundcakes,,https://perfectpoundcakes.org/,,
CT,East Hartford,Restaurant,Sidibe,,https://www.facebook.com/sidibeafricanresaurant/,,
CT,East Hartford,Restaurant,Sun Splash,,https://www.sunsplashbarandgrill.com/,,
CT,Hamden,Restaurant,Bomb Wings & Rice Bar,,https://www.toobomb.com/,,
CT,Hartford,Coffee Shop,Berkins Blend Coffee,,https://berkinsblendcafe.com/,,
CT,Hartford,Restaurant,Capitol Ice Cream,,https://www.facebook.com/capitalicecreamhartford/,,
CT,Hartford,Restaurant,Karobean Kitchen,Yes,https://www.facebook.com/pages/Karobean-Kitchen/294918677592478,Order on DoorDash: https://www.doordash.com/store/karobean-kitchen-trumbull-819332/en-US/?utm_campaign=gpa,
CT,Hartford,Restaurant,Bernice Bragadosus,,https://www.facebook.com/pages/category/American-Restaurant/Bernice-Bragadosus-319920504732983/,,
CT,Hartford,Restaurant,Carson's Kitchen,,https://carsonskitchen.org/,,
CT,Hartford,Restaurant,Dunn's River,Yes,https://www.grubhub.com/restaurant/dunns-river-jamaican-restaurant-2996-main-st-hartford/907073,,
CT,Hartford,Restaurant,Fire N' Spice,,http://www.fireandspiceveganrestaurant.com/,,
CT,Hartford,Restaurant,Juiced Up Juice Bar,,https://www.grubhub.com/restaurant/juiced-up-juice-bar-231-asylum-st-hartford/1117302,,
CT,Hartford,Restaurant,Hot Pots,Yes,http://www.hotpots2go.com/menus/hotPots_storeMenu.pdf,,
CT,Hartford,Restaurant,Pabs,,https://www.facebook.com/pages/Pabs-African-Restaurant/180231912689922,,
CT,Hartford,Restaurant,Scott's Jamaican Bakery,,https://www.facebook.com/jamaicanbakery/,,
CT,Hartford,Restaurant,Sisters,,https://www.facebook.com/pages/Sisters-Restaurant-LLC/113449715355482,,
CT,Hartford,Restaurant,Stella's and Mazie's,,https://www.facebook.com/StellasAndMazies/,,
CT,Hartford,Restaurant,Sun Splash,,https://www.sunsplashbarandgrill.com/,,
CT,Hartford,Restaurant,Soulbaila,,https://www.facebook.com/SoulBaila/,,
CT,Glastonbury,Coffee Shop,Berkins Blend Cafe,,https://berkinsblendcafe.com/,,
CT,Manchester,Restaurant,Thomas Smokey Pit Stop,,http://thomassmokeypitstop.com/,,
CT,Manchester,Restaurant,Anthony's Jamaican Restaurant,,https://www.grubhub.com/restaurant/anthonys-jamaican-restaurant-410-w-middle-tpke-manchester/384320,,
CT,Meriden,Restaurant,Bentley's Little Jamaican Cuisine,,https://www.facebook.com/pages/category/Jamaican-Restaurant/Bentleys-little-Jamaica-cuisine-117039752151800/,,
CT,Middletown,Restaurant,B&B Wings and Things,,https://bandbwingsandthings.com/,,
CT,Nagatuck,Restaurant,Living Right Health Bar,,https://livingrighthb.com/,,
CT,New Britain,Restaurant,My Wife Didn't Cook,,https://www.grubhub.com/restaurant/my-wife-didnt-cook-89-w-main-st-new-britain/1125715,,
CT,New Haven,Restaurant,African Queens Market,,http://www.africantreemarket.com/,,
CT,New Haven,Restaurant,Ninth Square Market,,https://www.facebook.com/ninthsquaremarketcaribbean/,,
CT,New Haven,Restaurant,Sandra's Next Generation,Yes,https://www.sandrasnextgeneration.com/,,
CT,Newington,Restaurant,Dilly's Cafe,,https://www.facebook.com/dillyscafect/,,
CT,Newington,Restaurant,Everybody Eatz,,https://www.facebook.com/EverybodyEatz1/,,
CT,Newington,Restaurant,Herb's Place,,https://www.facebook.com/herbsplace123/,,
CT,Newington,Restaurant,Ms. Barbara Jean's,,https://www.facebook.com/MsBarbaraJeans/,,
CT,Newington,Restaurant,No Leftovers,,https://www.noleftoversrestaurant.com/,,
CT,New London,Restaurant,Tony's Carribean Kitchen,,https://www.facebook.com/pages/category/Fast-Food-Restaurant/Tonys-Caribbean-Kitchen-1852447614973403/,,
CT,Norwich,Restaurant,Mommy's Delicious Food,,https://www.facebook.com/mommysdeliciousfood/,,
CT,Rocky Hill,Restaurant,Jamaican Kitchen,,https://www.jamaicankitchenct.com/menu/,,
CT,Stamford,Restaurant,Teff,Yes,http://www.teffstamford.com/restaurant,,
CT,Stamford,Restaurant,La Perle,,https://www.laperlect.com/,,
CT,Stamford,Restaurant,Puag,,https://puageats.com/,,
CT,Stamford,Restaurant,Soul Tasty,,http://www.soultastyct.com/,,
CT,Stratford,Restaurant,Kingston Kafe,,https://www.kingstonkafe.com/,,
CT,Storrs,Restaurant,It's All About the Flavor,,https://www.facebook.com/ItsAllAboutTheFlavour1/,,
CT,Vernon,Restaurant,Jamaican Kitchen,,https://www.jamaicankitchenct.com/,,
CT,Vernon/Rockville,Restaurant,Craig's Kitchen,Yes,https://craigssoulfood.com/,,
CT,Waterbury,Restaurant,The Art of Yum,,https://www.theartofyum.com/,,
CT,Waterbury,Restaurant,Mikey's Jamaican Restaurant,,https://www.facebook.com/MikeysJamaicanRestaurant/,,
CT,Waterbury,Restaurant,Mama Sue's Kitchen,,https://www.facebook.com/mamasuessoulfoodkitchen/,,
CT,Waterbury,Restaurant,Divine Health Juice Bar,,https://www.facebook.com/DivineHealthJuicBar/?ref=py_c,,
CT,Willimantic,Restaurant,Jamaican Me Crazy,,https://www.jamaicanmecrazyllc.com/,,
CT,Willimantic,Restaurant,Singh's Cabin,,"No website, call 860-942-8072",,
CT,Windsor,Restaurant,Lilly's Soul Food,Yes,https://www.facebook.com/LillysSoulfood/,,
MA,Allston,Restaurant,Rock City Pizza,Yes,https://rockcitypizzeria.com/,,
MA,Amherst,Jewelry Store,M&M Links,Yes,https://www.m2mlinks.com,,
MA,Belchertown,Restaurant,Auntie Elsie's Oatmeal Crisps,Yes,https://auntieelsies.com/,,
MA,Beacon Hill,Gym/Fitness,REPS Fitness Studio,Yes,http://www.repsfitnessstudio.com/reps-beacon-hill,,
MA,Boston,Catering/Private Chef,Cinsational Dining,Yes,https://www.cinsationaldining.com/,,
MA,Boston,Events/Virtual Events,LiteWork Events,Yes,http://www.liteworkevents.com/,,
MA,Boston,Gym/Fitness,Everybody Fights Boxing Gym,No,https://www.everybodyfights.com/,,
MA,Boston,Gym/Fitness,TRILLFIT,No,https://www.trill.fit/,,
MA,Boston,Health/Beauty,Brown & Coconut,Yes,https://brownandcoconut.com/,,
MA,Boston,Health/Beauty,Organic Bath Co.,Yes,https://www.organicbath.co/,,
MA,Boston,Pet/Animal Services,Boston's Best Dog Walkers,Yes,https://bostonsbestdogwalkers.com/,,
MA,Boston,Restaurant,Discover Vegans,Yes,https://www.discovervegans.co/,,
MA,Boston,Restaurant,Flames Caribbean Restaurant,No,http://flamesjamaicanrestaurants.com/,,
MA,Boston,Restaurant,Fresh Food Generation,No,http://www.freshfoodgeneration.com/,,
MA,Boston,Restaurant,Larry J's BBQ (Boston Location),No,https://www.larryjsbbqcafe.com/,,
MA,Boston,Restaurant,Next Step Soul Food Cafe,No,https://straffordcreamery.com/about-us/,,
MA,Boston,Restaurant,Nu Flav Restaurant,Unclear,https://www.nuflavboston.com/,,
MA,Boston,Restaurant,P&R Jamaican Restaurant,Yes,https://www.eatpandr.com/,,
MA,Boston,Restaurant,Savvor Restaurant & Lounge,No,https://www.savvorbostonlounge.com/,,
MA,Boston,Restaurant,Tawakal Halal Cafe,Yes,https://www.facebook.com/TawakalHalalCafe/,,
MA,Boston,Wine Store,Urban Grape,,http://theurbangrape.com/,,
MA,Brockton,Restaurant,JJ's Caffe,,https://www.jjscaffe.com/,,
MA,Brookline,Restaurant,Rhythm N' Wraps,,https://www.rhythmnwraps.com/,,
MA,Cambridge,Food Truck,The Pull Up,Yes,https://www.facebook.com/ThePullUpLLC/,,
MA,Cambridge,Restaurant,La Fábrica Central,,https://www.lafabricacentral.com/,,
MA,Cambridge,Restaurant,Little Crepe Cafe,Yes,https://www.littlecrepecafe.com/,,
MA,Cambridge,Restaurant,Oggi Gourmet,,http://www.oggigourmet.com/,,
MA,Cambridge,Restaurant,The Coast Cafe,Yes,https://coastsoulcafe.com/,Order online: https://www.grubhub.com/restaurant/the-coast-cafe-233-river-st-cambridge/279471?classicAffiliateId=%2Fr%2Fw%2F50002%2Frestaurant%2F279471,
MA,Chicopee,Restaurant,Hazel's Kitchen,Yes,https://www.facebook.com/pages/category/Caribbean-Restaurant/Hazels-Kitchen-166927287238980/,,
MA,Danvers,Clothing,Glitterati Prom & Pageant Superstore,,https://www.facebook.com/GlitteratiDanvers/,,
MA,Dorchester,Restaurant,50Kitchen,Yes,https://50kitchen.com/,,
MA,Dorchester,Restaurant,Auntie Vie's Bakery Cafe,Yes,https://www.facebook.com/pages/category/Bakery/Auntie-Vies-Bakery-Cafe-152960008211429/,,
MA,Dorchester,Restaurant,Bon Appetit,Yes,https://www.facebook.com/bonappetitboston/,,
MA,Dorchester,Restaurant,Bred Gourmet,Yes,http://www.bredgourmet.com/,,
MA,Dorchester,Restaurant,Cape Verde Taste,,https://cape-verde-taste.business.site/,,
MA,Dorchester,Restaurant,Cesaria,Yes,https://www.restaurantcesaria.com/,,
MA,Dorchester,Restaurant,Clarke's Cakes & Cookies,Yes,https://www.clarkescakesandcookies.com/,,
MA,Dorchester,Restaurant,Down Home Delivery,Yes,http://www.downhomedelivery.com/,,
MA,Dorchester,Restaurant,Family Affair Restaurant & Catering,Yes,https://famaffairboston.wixsite.com/mysite,,
MA,Dorchester,Restaurant,Food For the Soul,,https://www.facebook.com/bostonsoulfood/,,
MA,Dorchester,Restaurant,Irie Jamaican Style Restaurant,Yes,http://www.iriejamaicanstylerestaurant.net/,,
MA,Dorchester,Restaurant,Island Style Jamaican Restaurant,Yes,https://www.facebook.com/islandstyle183,,
MA,Dorchester,Restaurant,JP Roti Shop,Yes,https://www.facebook.com/JP-ROTI-SHOP-1106702066057742/,,
MA,Dorchester,Restaurant,Levi's Restaurant and Lounge,No,https://www.facebook.com/Levis323/,,
MA,Dorchester,Restaurant,M&M's BBQ,Yes,https://www.mandmribs.com/,,
MA,Dorchester,Restaurant,Murl's Kitchen,Yes,https://murls-kitchen.business.site/,,
MA,Dorchester,Restaurant,Natif Natal Restaurant,Yes,http://ordernatifnatal.com/,,
MA,Dorchester,Restaurant,Next Step Soul Food Cafe,No,https://www.facebook.com/nextstepsoulfoodcafe/,,
MA,Dorchester,Restaurant,Oasis Cafe,Yes,https://oasis-restaurant-caribbean-restaurant.business.site/,,
MA,Dorchester,Restaurant,Oasis Vegan Veggie Parlor,Yes,https://www.facebook.com/OasisVeganVeggieParlor,,
MA,Dorchester,Restaurant,One Family Diner,Yes,https://www.facebook.com/OnefamilydinerDorchester/,,
MA,Dorchester,Restaurant,Only One Jamaican Restaurant,Yes,https://www.onlyonerestaurant.com/,,
MA,Dorchester,Restaurant,Raphael Caribbean Cuisine,,https://www.facebook.com/Raphaels-Caribbean-Cuisine-1503478686549420/,,
MA,Dorchester,Restaurant,Ripple Cafe,Yes,https://ripple-cafe.business.site/,,
MA,Dorchester,Restaurant,Singh's Roti Shop,Yes,http://www.singhsrotishop.net/,,
MA,Dorchester,Restaurant,Taste of Eden,Yes,https://www.tasteofedenjamerican.net/,,
MA,Dorchester,Restaurant,Vaughan Fish & Chips,No,https://www.facebook.com/pages/Vaughan-Fish-Chips/100849106625946,,
MA,Dorchester,Restaurant,Wings & Tingz,Yes,https://www.wingzandtingz.com/,,
MA,Dorchester,Restaurant,Yelu's,Yes,https://www.seamless.com/menu/yelus-116-washington-st-dorchester/611215,,
MA,Greenfield,Jewelry Store,Black Stone Alchemy,,https://www.facebook.com/blackstonealchemy/,,
MA,Hadley,Bar,Taproom,,https://www.facebook.com/TheTaproomHadley/,,
MA,Holyoke,Restaurant,Hot Oven Cookies,,https://www.hotovencookies.com/,,
MA,Hyde Park,Restaurant,D Coal Pot,Yes,https://www.facebook.com/pages/category/Caribbean-Restaurant/D-Coal-Pot-137261126484637/,,
MA,Hyde Park,Restaurant,Farah's Cafe Restaurant,Yes,https://www.facebook.com/pages/Farahs-Cafe-Restaurant/434943279881816,,
MA,Hyde Park,Restaurant,Las Vegas Seafood,,https://www.facebook.com/LasVegasHydePark/,,
MA,Hyde Park,Restaurant,Lil Haiti International Cuisine,,https://www.facebook.com/littlehaitiinternationalcuisine,,
MA,Hyde Park,Restaurant,Wings & Tingz,Yes,https://www.wingzandtingz.com/,,
MA,Hyde Park,Restaurant,ZaZ Restaurant,Yes,https://www.zazrestaurant.com/,,
MA,Jamaica Plain,Gym/Fitness,REPS,Yes,http://www.repsfitnessstudio.com/jamaica-plain/rates,,
MA,Jamaica Plain,Restaurant,Blue Nile Restaurant,Yes,https://www.bluenileincjp.com/,,
MA,Jamaica Plain,Restaurant,Exodus Bagels,Yes,http://www.exodusbagels.com/,,
MA,Jamaica Plain,Restaurant,Jamaican Mi Hungry,Yes,https://www.jamaicamihungry.com/,,
MA,Lanesborough,Restaurant,Mad Jack's BBQ,,http://www.madjacksbbqonline.com/,,
MA,Leominster,Photographer,Habakkuk Media Services,,http://habakkukmedia.com/Site/home.html,,
MA,Leominster,Restaurant,Comeketo,,https://www.comeketo.com/,,
MA,Malden,Restaurant,Infused Kreyol,,https://www.facebook.com/pages/category/Kitchen-Cooking/Infused-Kreyol-Restaurant-372809593140350/,,
MA,Mattapan,Restaurant,Ali's Roti,No,https://www.facebook.com/pages/category/Caribbean-Restaurant/Alis-Roti-Restaurant-163231053700708/,,
MA,Mattapan,Restaurant,Au Beurre Chaud Bakery,Yes,https://www.grubhub.com/restaurant/au-beurre-chaud-bakery-725-river-st-hyde-park/506264,,
MA,Mattapan,Restaurant,Blue Mountain Jamaican Restaurant,Yes,https://bluemountainjamaicanrestaurant.com/,,
MA,Mattapan,Restaurant,Cafe JuiceUp,Yes,https://www.grubhub.com/restaurant/cafe-juice-up-1290-blue-hill-ave-mattapan/1091636,,
MA,Mattapan,Restaurant,Golden Krust,Yes,https://www.goldenkrust.com/,,
MA,Mattapan,Restaurant,Le Foyer Bakery,No,https://www.facebook.com/pages/Le-Foyer-Bakery/111731602196380,,
MA,Mattapan,Restaurant,P&R Jamaican Restaurant,Yes,https://www.eatpandr.com/,,
MA,Mattapan,Restaurant,Pit Stop Barbecue,Yes,http://www.pitstopbarbecue.com/,,
MA,Mattapan,Restaurant,Prestige Cuisine,No,https://www.grubhub.com/restaurant/prestige-cuisine-568-broad-st-providence/1273704,,
MA,Mattapan,Restaurant,Shea Butter Smoothies,No,https://www.grubhub.com/restaurant/shea-butter-smoothies-1556-blue-hill-ave-mattapan/1012191,,
MA,Medford,Restaurant,Neighborhood Kitchen,,https://www.nkboston.com/,,
MA,Needham,Restaurant,French Press Bakery,,https://www.frenchpressbakery.com/,,
MA,Peabody,Clothing,Glitterati Prom & Pageant Superstore,,https://www.facebook.com/GlitteratiDanvers/,,
MA,Pittsfield,Catering,92nd Sauce Caterer,,https://www.facebook.com/92ndsauce/,,
MA,Pittsfield,Restaurant,Roman Restaurant and Cuchifritos,,https://www.romans-rc.com/,,
MA,Pittsfield,Restaurant,Smokey Divas,,https://www.facebook.com/pages/Smokey-Divas/1798995240181102,,
MA,Revere,Restaurant,Larry J's BBQ (Revere Location),Yes,https://www.larryjsbbqcafe.com/,,
MA,Roslindale,Restaurant,Obosa,No,https://www.facebook.com/obosaRestaurant/,,
MA,Roslindale,Restaurant,R&S Jamaican Restaurant,Yes,"No website, call (617) 477-4292",,
MA,Roxbury,Bookstore,Frugal Bookstore,Yes,https://frugalbookstore.net/,"Curbside pick-ups, deliveries, and mail orders",
MA,Roxbury,Restaurant,Ali's Roti,No,https://www.facebook.com/pages/category/Caribbean-Restaurant/Alis-Roti-Restaurant-163231053700708/,,
MA,Roxbury,Restaurant,Ashur Restaurant,Yes,https://www.grubhub.com/restaurant/ashur-restaurant-291-roxbury-st-roxbury/339725,,
MA,Roxbury,Restaurant,Dayib Cafe,No,https://www.facebook.com/pages/Dayib-Cafe/115704861786008,,
MA,Roxbury,Restaurant,District 7 Tavern,No,https://www.facebook.com/District7Tavern/,,
MA,Roxbury,Restaurant,Fasika Cafe,Yes,https://www.grubhub.com/restaurant/fasika-ethopian-cafe-51-roxbury-st-roxbury/1168999,,
MA,Roxbury,Restaurant,Fort Hill Bar + Grill,No,https://www.facebook.com/forthillbarandgrill/,,
MA,Roxbury,Restaurant,Ideals Sub Shop,Yes,https://www.facebook.com/pages/Ideals-Sub-Shop/204762512890620,,
MA,Roxbury,Restaurant,Maxine's on St. James,Yes,http://www.maxinesonsaintjames.com/,,
MA,Roxbury,Restaurant,Nos Casa Cafe,Yes,https://www.noscasacafe.com/,,
MA,Roxbury,Restaurant,Silver Slipper,Yes,https://www.facebook.com/pages/Silver-Slipper-Restaurant/105921002783527,,
MA,Roxbury,Restaurant,Soleil,Yes,https://www.soleilboston.com/,,
MA,Roxbury,Restaurant,Suya Joint,Yes,https://www.ordersuyajoint.com/,,
MA,Roxbury,Restaurant,Top Mix,Yes,https://www.topmixbar.com/,,
MA,Shelburne Falls,Restaurant,Gypsy Apple Bistro,,https://www.gypsyapplebistro.com/,,
MA,Somerville,Restaurant,Fasika Ethiopian Restaurant,No,https://www.facebook.com/Fasika-Ethiopian-Restaurant-270199968251/,,
MA,Somerville,Restaurant,Highland Cuisine,,https://highlandcreolecuisine.com/,,
MA,Somerville,Restaurant,Petsi Pies,,https://petsipies.com/,,
MA,Somerville,Restaurant,Pikliz International Kitchen,,https://www.piklizint.com/,,
MA,Somerville,Restaurant,Tanám,,https://tanam.co/all-posts,,
MA,South End,Restaurant,Darryl’s Corner Bar & Kitchen,Yes,https://dcbkboston.com/,,
MA,South End,Restaurant,Lucy Ethiopian Cafe,Yes,https://www.facebook.com/Lucy-Ethiopian-Cafe-375251434602/,,
MA,South End,Restaurant,MIDA,Yes,https://www.midaboston.com/,,
MA,South End,Restaurant,Slades Bar + Grill,No,https://www.sladesbarandgrill.com/,,
MA,South End,Restaurant,Wally's Cafe Jazz Club,No,https://wallyscafe.com/index.html,,
MA,Springfield,Bar,White Lion,Yes,https://whitelionbrewing.com/,,
MA,Springfield,Bookstore,Olive Tree Books-n-Voices,Unclear,https://www.facebook.com/olivetreebooks/,,(413) 737-6400
MA,Springfield,Cigar Shop/Smoke Shop,Smokey Joe's Cigar Lounge,Yes,http://www.smokeyjoescigars.com/welcome,,
MA,Springfield,Cigar Shop/Smoke Shop,The Head Shop,Yes,https://www.facebook.com/theheadshop413/,,
MA,Springfield,Farm,Gardening the Community,Yes,http://www.gardeningthecommunity.org/,,
MA,Springfield,Grocery Store,Bumpy's Natural and Organic Foods,Yes,https://bumpysbargains.com/,,
MA,Springfield,Health/Beauty,Exotic Scentsations,Yes,https://exoticscentsations.com/,,
MA,Springfield,Restaurant,Chef Wayne's Big Mamou,Yes,https://chefwaynes-bigmamou.com/,,
MA,Springfield,Restaurant,Chick E. D's: Chicken and Grill,Yes,https://d.facebook.com/chick.e.d/?__tn__=C-R,,
MA,Springfield,Restaurant,Crispy's Wings-N-Fish,,https://www.facebook.com/pages/Crispys-Wings-N-Fish/2126563604250213,,
MA,Springfield,Restaurant,Erica's Hall of Fame Kitchen,Yes,https://www.facebook.com/pages/category/Soul-Food-Restaurant/Ericas-Hall-of-Fame-Kitchen-893214307380784/,,
MA,Springfield,Restaurant,Eye Seafood,Yes,https://www.facebook.com/pages/category/Seafood-Restaurant/Eyeseafood-117126209167679/,,
MA,Springfield,Restaurant,Garden of Eat’n,,https://www.facebook.com/Garden-of-Eatn-Springfield-355919694804583/,,
MA,Springfield,Restaurant,Golden Krust,Yes,https://www.facebook.com/GoldenKrustSpringfield/?rf=435965529840254,,
MA,Springfield,Restaurant,Granny's Baking Table,Yes,https://www.grannysbakingtable.com/,,
MA,Springfield,Restaurant,Ioana's Cafe & Grill,Yes,https://www.facebook.com/ionascafegrill1/,,
MA,Springfield,Restaurant,Khi and Eli's Food for the Soul,Yes,https://springfield.deliveryexpress.com/r/549/restaurants/delivery/Soul-Food/Khi-and-Elis-Springfield,,
MA,Springfield,Restaurant,Soulao'd Kitchen,Yes,https://www.facebook.com/3saolao/,,
MA,Springfield,Restaurant,The Souper Sweet Sandwich Shop,Yes,http://www.soupersweetsandwichshop.com/,,
MA,Springfield,Restaurant,Try Me Too,Yes,https://www.seamless.com/menu/try-me-too-breakfast-and-lunch-827-state-st-springfield/882299,,
MA,Springfield,Restaurant,Wing Madness,Yes,https://www.seamless.com/menu/wing-madness-1287-liberty-st-springfield/1751447,,
MA,Springfield,Restaurant,Wings and Wafflez,,https://www.facebook.com/wingzandwafflez413/,,
MA,Springfield,Restaurant,Yaad Food,Yes,https://springfield.deliveryexpress.com/r/489/restaurants/delivery/Caribbean/Yaad-Food-Indian-Orchard,,
MA,Stoughton,Restaurant,Ore A Love Story,,https://www.facebook.com/orelovestory/,,
MA,Waltham,Restaurant,Karibu,,https://tasteofkaribu.com/,,
MA,Watertown,Brewery,Brazo Fuerte,Unclear,http://brazo-fuerte.squarespace.com/,Not clear if it's still operating,
MA,Worcester,Restaurant,Belmont Vegetarian,,https://www.facebook.com/BelmontVegetarianRestaurant/,,
ME,Biddeford,Clothing,Styles 4 Less,,https://www.facebook.com/stylz4lessbiddeford,,
ME,Brunswick,Health/Beauty,King's and Queen's Hair Studio,,https://kingsandqueenshairstudio.com/,,
ME,Ellsworth,Restaurant,Taste Jamaica,,https://tastejamaicamaine.wixsite.com/fastfood,,
ME,Freeport,Restaurant,Jeff's Jamaican Cuisine,,https://www.facebook.com/Cuisinejamaica,,
ME,Lewiston,Grocery Store,Baraka,,https://www.facebook.com/pages/Baraka/115706815155230,,
ME,Lewiston,Grocery Store,Goshen Supermarket,,"No website, call (207) 784-6000",,
ME,Lewiston,Grocery Store,Marham Halal Store,,https://www.facebook.com/MahramHalaalMarket,,
ME,Lewiston,Grocery Store,Mashallah Store,,https://mashallahstore.net/,,
ME,Lewiston,Grocery Store,Mogadishu Store,,https://www.facebook.com/pages/Mogadishu-Store/161340300551297,,
ME,Lewiston,Grocery Store,Nasra Grocery Store,,"No website, call (207) 221-0015",,
ME,Lewiston,Restaurant,Alabama's BBQ Catering,,https://www.facebook.com/alabamasbbq,,
ME,Portland,Catering,Niyat Catering,,https://www.instagram.com/niyatcatering,,
ME,Portland,Cleaning Service,American Diamond Cleaning,,https://www.adcleanmaine.com/,,
ME,Portland,Clothing,Portland Trading Co.,,https://www.portlandtradingco.com/,,
ME,Portland,Clothing,Sweet May Co.,Yes,https://www.etsy.com/shop/sweetmayco?fbclid=IwAR2lnpuIP_3qB7Xk1APqrE5aiKplh86BZDWeyKuQmG2fUVn_a6YOQSIYG1g,,
ME,Portland,Coffee Shop,Burundi Star Coffee,,https://www.facebook.com/Burundistar,,
ME,Portland,Coffee Shop,Rwanda Bean Coffee,Yes,https://rwandabean.com/,,
ME,Portland,Coffee Shop,The Knitting Nook,,http://knittingnookme.com/,,
ME,Portland,Farm,Fresh Start Farms/Cultivating Community,,https://www.cultivatingcommunity.org/,,
ME,Portland,Grocery Store,African International Grocery Store,,No website,,
ME,Portland,Grocery Store,African Supermarket,,"No website, call (207) 409-4085",,
ME,Portland,Grocery Store,Banadir Halal Market,,"No website, call (207) 772-9464",,
ME,Portland,Grocery Store,Ebeneezer African Grocery Store,,"No website, call (207) 774-2241",,
ME,Portland,Grocery Store,Moriah Store,,https://www.facebook.com/pages/category/Ethnic-Grocery-Store/Moriah-STORE-982291558539730/,,
ME,Portland,Grocery Store,Noor Grocery Store,,No website,,
ME,Portland,Grocery Store,Peace Food,,https://www.facebook.com/pages/Peace-Food-Market/111642168891232,,
ME,Portland,Health/Beauty,LooHoo Wool Dryer Balls,,https://www.loo-hoo.com/,,
ME,Portland,Health/Beauty,Mariama's Beauty Supply,,https://www.mariamasbeautysupply.com/,,
ME,Portland,Restaurant,207 Bar & Restaurant,No,https://www.facebook.com/pages/category/Lounge/207-Bar-Restaurant-111397913652873/,,
ME,Portland,Restaurant,Asmara Ethiopian Food,Yes,http://asmararestaurant.com/,,
ME,Portland,Restaurant,Chez Bujabelle,Yes,"No website, call (207) 808-8064",,
ME,Portland,Restaurant,Magnus on Water,Unclear,https://www.magnusonwater.com/,,
ME,Portland,Restaurant,Red Sea Ethiopian Food,No,https://www.facebook.com/habrom2/,,
ME,Portland,Restaurant,Yardie Ting,Yes,https://www.facebook.com/yardieting/,,
ME,Saco,Health/Beauty,Victor at Bellas and Fellas and Mobile,,http://www.instagram.com/vic_the_barber207,,
ME,Sanford,Health/Beauty,Hair Extreme,,https://www.instagram.com/craiggrant41/,(207) 459-4574,
ME,Sanford,Restaurant,One Love Cuisine,,https://www.facebook.com/1nelovecuisine/,,
ME,Sanford,Restaurant,Richies' Jerk and BBQ,,https://www.facebook.com/richiesjbbq,,
ME,Waterville,Restaurant,Me Lon Togo,No,https://www.melontogobistro.com/,,
NH,Claremont,Restaurant,Sunshine Cookshop Jamaican Style Cooking,Yes,https://www.sunshinecookshop.com/,,
NH,Exeter,Marketing,Drinkwater Marketing,,,,
NH,Laconia,Food/Merchandise,Ooo La La Creative Cakes,,,,
NH,Lancaster,Lodging,Lancaster Motel,,https://www.thelancastermotel.com/,,
NH,Lebanon,Coffee Shop,Karibbean Coffee Shop,,https://www.facebook.com/pages/The-Karibbean-Coffee-Shop/1405898399563896,,
NH,Manchester,Clothing Store,Handleurbiz,,,,
NH,Manchester,Clothing Store,Hub Clothing,Yes,https://www.facebook.com/Hub-clothing-366263420895101/,,
NH,Manchester,Health/Beauty,Glow Hair Braiding,,,,
NH,Manchester,Health/Beauty,Rootz Natural Hair Shop LLC,,,,
NH,Manchester,Health/Beauty,Shear Talk Prov 18:10 Hair Salon,,,,
NH,Manchester,Restaurant,Madear's Southern Eatery and Bakery,Yes,https://www.facebook.com/madears603/,,
NH,Manchester,Restaurant,Mr. Baker Cheesecake Co,No,https://www.facebook.com/mrbakercheesecake/,,
NH,Manchester,Restaurant,The Pint Publik House,No,https://www.facebook.com/ThePintPublikHouse/,,
NH,Milford,Restaurant,Green Leaf,Yes,https://greenleafmilford.com/,Open with outdoor seating and for pick up.,
NH,Nashua,Catering,Homestyle Catering,,,,
NH,Nashua,Health/Beauty,Beautiful Beginnings Hair Studio,,,,
NH,Nashua,Food/Merchandise,Rebel Pickles,Yes,https://rebelpickles.wixsite.com/rebelpickles,,
NH,Nashua,Restaurant,Soel Sista LLC,,,,
NH,New London,Coffee Shop,Grounds Cafe,,,,
NH,Portsmouth,Coffee Shop,Cup of Joe,Yes,https://www.facebook.com/cupofjoeNH/,,
RI,Cranston,Restaurant,Cakes by Eboni,,https://www.cakesbyeboni.com/,,
RI,Johnston,Restaurant,Bangin Wings,Yes,https://bangin-wings.business.site/,,
RI,Newport,Restaurant,Humming Bird Newport,Yes,https://www.villagepawtucket.com/,,
RI,Pawtucket,Distillery,White Dog Distilling,,https://www.whitedogdistilling.com/,,
RI,Pawtucket,Restaurant,Bake Eat Love Bakery,Yes,https://www.bakeeatlovebakery.com/,,
RI,Pawtucket,Restaurant,Ja Patty Catering & Events,Yes,https://www.japatty.com/,,
RI,Pawtucket,Restaurant,Monte Cara,,http://www.montecararestaurant.com/,,
RI,Pawtucket,Restaurant,Village Restaurant,,https://www.villagepawtucket.com/,,
RI,Providence,Health/Beauty,Blended Sisters Beauty Supply,Yes,https://www.facebook.com/pages/category/Shopping---Retail/Blended-Sisters-Beauty-Supply-118942476179030/,,
RI,Providence,Restaurant,Baker Street Cafe,Yes,https://www.facebook.com/bstcafe/,,
RI,Providence,Restaurant,Black Beans PVD,No,http://www.blackbeanspvd.com/,,
RI,Providence,Restaurant,"Brooklyn Coffee, Tea, and Guest House",No,https://www.brooklyncoffeeteaguesthouse.com/,GoFundMe to support reopening: https://www.gofundme.com/f/brooklyn-coffee-tea-guest-house-covid-19-relief-fund-smb,
RI,Providence,Restaurant,Bucktown,Yes,https://www.bucktownpvd.com/,,
RI,Providence,Restaurant,Flame Restaurant,Yes,https://www.facebook.com/pages/Flame-Restaurant/1127845017233807,,
RI,Providence,Restaurant,Food For the Soul,,https://www.facebook.com/pages/category/Soul-Food-Restaurant/Food-For-The-Soul-185821341455383/,,
RI,Providence,Restaurant,Four/29 Brunch and Supper Club,No,https://www.dinewith429.com/about,,
RI,Providence,Restaurant,Garden of Eve,,http://gardenofeveri.com/,,
RI,Providence,Restaurant,Glorious West African Restaurant,Yes,https://www.facebook.com/GloriousAfricanFood,,
RI,Providence,Restaurant,Incred-a-bowl Food Truck,,http://incredabowlfood.mystrikingly.com/,,
RI,Providence,Restaurant,Island House,Yes,https://islandhouserestaurantri.com/,,
RI,Providence,Restaurant,Pan-a-Day Take Away,Yes,https://www.yelp.com/biz/pan-a-day-take-away-providence-3,,
RI,Providence,Restaurant,Sarcastic Sweets,,https://www.sarcasticsweet.com/about-us,,
RI,Providence,Restaurant,Syroya's Sweetsations,,https://www.facebook.com/Syroya.Sweetsations/,,
RI,Providence,Restaurant,The Afro-Indigenous Vegan,,https://www.facebook.com/watch/the_afro_indigenous_vegan-117038219698579/,,
RI,Providence,Restaurant,The District,,http://thedistrictri.com/,,
RI,Providence,Restaurant,The Glow Cafe and Juice Bar,,https://eatdrinkglow.com/,,
RI,Providence,Restaurant,TroopPVD,,https://www.trooppvd.com/,,
RI,Warren,Restaurant,Black Leaf Tea and Culture Shop,Yes,https://www.theblackleaftea.com/our-roots,,
RI,Warren,Restaurant,Maxine Baked,Yes,https://maxinebaked.com/,,
RI,Woonsocket,Restaurant,Bugg'd Out BBQ,,https://www.buggdouttbbq.com/,,
VT,Barnet,Restaurant,Genuine Jamaican,Yes,http://genuinejamaican.com/,,
VT,Bellows Falls,Restaurant/Food Truck,Jamaican Jewelz,Yes,http://www.jamaicanjewelz.com/,,
VT,Brattleboro,Bar,Arkham,No,https://www.facebook.com/arkhamdivebar/,,
VT,Charlotte,Farm/Museum,Clemmons Family Farm,No,http://www.clemmonsfamilyfarm.org/,Open for donations/volunteer opportunities: https://www.facebook.com/ClemmonsFarm/,(765) 560-5445
VT,Strafford,Dairy Farm,Strafford Organic Creamery,Yes,https://straffordcreamery.com/,,
VT,Winooski,Health/Beauty,Atlas Hair Studio,No,https://www.facebook.com/pages/category/Hair-Salon/Atlas-Hair-Studio-545933542266682/,,